[{"OBJECT_NAME":"WILDFIRE 2","OBJECT_ID":"2023-133L","EPOCH":"2026-03-09T19:22:31.583136","MEAN_MOTION":13.8518725,"ECCENTRICITY":0.00045046,"INCLINATION":80.993,"RA_OF_ASC_NODE":102.8595,"ARG_OF_PERICENTER":298.2911,"MEAN_ANOMALY":61.779,"EPHEMERIS_TYPE":0,"CLASSIFICATION_TYPE":"U","NORAD_CAT_ID":57767,"ELEMENT_SET_NO":999,"REV_AT_EPOCH":12724,"BSTAR":6.4756906e-5,"MEAN_MOTION_DOT":8.4e-7,"MEAN_MOTION_DDOT":0},{"OBJECT_NAME":"CZ-6A DEB","OBJECT_ID":"2024-140AAJ","EPOCH":"2026-03-09T20:13:25.637376","MEAN_MOTION":14.05768761,"ECCENTRICITY":0.01064921,"INCLINATION":88.979,"RA_OF_ASC_NODE":286.3147,"ARG_OF_PERICENTER":184.75,"MEAN_ANOMALY":175.2682,"EPHEMERIS_TYPE":0,"CLASSIFICATION_TYPE":"U","NORAD_CAT_ID":61476,"ELEMENT_SET_NO":999,"REV_AT_EPOCH":7750,"BSTAR":-7.5526146e-5,"MEAN_MOTION_DOT":-1.15e-6,"MEAN_MOTION_DDOT":0}]
